{
  "type": "FeatureCollection",
  "features": [
    {
      "type": "Feature",
      "properties": {
        "norad_id": 35090,
        "name": "FENGYUN 1C DEB",
        "group": "fengyun-1c-debris",
        "lat": -70.58262145801903,
        "lon": 166.71385170714422,
        "alt_km": 834.8163193842493,
        "timestamp": "2025-12-26T21:25:53.297678+00:00",
        "meta_object_name": "FENGYUN 1C DEB",
        "meta_object_id": "1999-025DJS",
        "meta_epoch": "2025-12-15T11:31:21.871200",
        "meta_mean_motion": 14.17610468,
        "meta_eccentricity": 0.00548506,
        "meta_inclination": 99.1994,
        "meta_ra_of_asc_node": 2.2725,
        "meta_arg_of_pericenter": 7.0781,
        "meta_mean_anomaly": 353.1155,
        "meta_ephemeris_type": 0,
        "meta_classification_type": "U",
        "meta_norad_cat_id": 35090,
        "meta_element_set_no": 999,
        "meta_rev_at_epoch": 66289,
        "meta_bstar": 0.0011364277,
        "meta_mean_motion_dot": 2.298e-05,
        "meta_mean_motion_ddot": 0,
        "tle_line1": "1 35090U 99025DJS 25349.48011425  .00002298  00000+0  11364-2 0  9997",
        "tle_line2": "2 35090  99.1994   2.2725 0054850   7.0781 353.1155 14.17610468662895"
      },
      "geometry": {
        "type": "Point",
        "coordinates": [
          166.71385170714422,
          -70.58262145801903
        ]
      }
    },
    {
      "type": "Feature",
      "properties": {
        "norad_id": 35091,
        "name": "FENGYUN 1C DEB",
        "group": "fengyun-1c-debris",
        "lat": -48.609378833283,
        "lon": 115.63416268735486,
        "alt_km": 677.2003539132847,
        "timestamp": "2025-12-26T21:25:53.297688+00:00",
        "meta_object_name": "FENGYUN 1C DEB",
        "meta_object_id": "1999-025DJT",
        "meta_epoch": "2025-12-25T06:13:57.794880",
        "meta_mean_motion": 14.61875756,
        "meta_eccentricity": 0.0049836,
        "meta_inclination": 98.5978,
        "meta_ra_of_asc_node": 104.0512,
        "meta_arg_of_pericenter": 253.6551,
        "meta_mean_anomaly": 105.9166,
        "meta_ephemeris_type": 0,
        "meta_classification_type": "U",
        "meta_norad_cat_id": 35091,
        "meta_element_set_no": 999,
        "meta_rev_at_epoch": 90110,
        "meta_bstar": 0.0030716,
        "meta_mean_motion_dot": 0.00015611,
        "meta_mean_motion_ddot": 0,
        "tle_line1": "1 35091U 99025DJT 25359.25969670  .00015611  00000+0  30716-2 0  9993",
        "tle_line2": "2 35091  98.5978 104.0512 0049836 253.6551 105.9166 14.61875756901105"
      },
      "geometry": {
        "type": "Point",
        "coordinates": [
          115.63416268735486,
          -48.609378833283
        ]
      }
    },
    {
      "type": "Feature",
      "properties": {
        "norad_id": 35102,
        "name": "FENGYUN 1C DEB",
        "group": "fengyun-1c-debris",
        "lat": -51.93832047958052,
        "lon": 179.79372404241266,
        "alt_km": 845.7883067664507,
        "timestamp": "2025-12-26T21:25:53.297699+00:00",
        "meta_object_name": "FENGYUN 1C DEB",
        "meta_object_id": "1999-025DKE",
        "meta_epoch": "2025-12-13T06:19:02.409312",
        "meta_mean_motion": 14.28874039,
        "meta_eccentricity": 0.00607637,
        "meta_inclination": 98.4802,
        "meta_ra_of_asc_node": 357.5239,
        "meta_arg_of_pericenter": 90.2418,
        "meta_mean_anomaly": 270.5727,
        "meta_ephemeris_type": 0,
        "meta_classification_type": "U",
        "meta_norad_cat_id": 35102,
        "meta_element_set_no": 999,
        "meta_rev_at_epoch": 64920,
        "meta_bstar": 0.00073405609,
        "meta_mean_motion_dot": 1.848e-05,
        "meta_mean_motion_ddot": 0,
        "tle_line1": "1 35102U 99025DKE 25347.26322233  .00001848  00000+0  73406-3 0  9993",
        "tle_line2": "2 35102  98.4802 357.5239 0060763  90.2418 270.5727 14.28874039649201"
      },
      "geometry": {
        "type": "Point",
        "coordinates": [
          179.79372404241266,
          -51.93832047958052
        ]
      }
    },
    {
      "type": "Feature",
      "properties": {
        "norad_id": 35104,
        "name": "FENGYUN 1C DEB",
        "group": "fengyun-1c-debris",
        "lat": -38.623174632444545,
        "lon": 14.13746887822851,
        "alt_km": 847.7965801341397,
        "timestamp": "2025-12-26T21:25:53.297710+00:00",
        "meta_object_name": "FENGYUN 1C DEB",
        "meta_object_id": "1999-025DKG",
        "meta_epoch": "2025-12-20T06:46:17.192352",
        "meta_mean_motion": 14.20340868,
        "meta_eccentricity": 0.00314522,
        "meta_inclination": 98.5954,
        "meta_ra_of_asc_node": 0.7725,
        "meta_arg_of_pericenter": 119.6618,
        "meta_mean_anomaly": 257.8395,
        "meta_ephemeris_type": 0,
        "meta_classification_type": "U",
        "meta_norad_cat_id": 35104,
        "meta_element_set_no": 999,
        "meta_rev_at_epoch": 89874,
        "meta_bstar": 0.00030233796,
        "meta_mean_motion_dot": 6.08e-06,
        "meta_mean_motion_ddot": 0,
        "tle_line1": "1 35104U 99025DKG 25354.28214343  .00000608  00000+0  30234-3 0  9992",
        "tle_line2": "2 35104  98.5954   0.7725 0031452 119.6618 257.8395 14.20340868898744"
      },
      "geometry": {
        "type": "Point",
        "coordinates": [
          14.13746887822851,
          -38.623174632444545
        ]
      }
    },
    {
      "type": "Feature",
      "properties": {
        "norad_id": 35105,
        "name": "FENGYUN 1C DEB",
        "group": "fengyun-1c-debris",
        "lat": -14.456853518968,
        "lon": 160.36989456934498,
        "alt_km": 825.1821742101201,
        "timestamp": "2025-12-26T21:25:53.297723+00:00",
        "meta_object_name": "FENGYUN 1C DEB",
        "meta_object_id": "1999-025DKH",
        "meta_epoch": "2025-12-24T05:24:14.039136",
        "meta_mean_motion": 14.45410929,
        "meta_eccentricity": 0.01123178,
        "meta_inclination": 98.9452,
        "meta_ra_of_asc_node": 339.887,
        "meta_arg_of_pericenter": 20.4148,
        "meta_mean_anomaly": 340.1478,
        "meta_ephemeris_type": 0,
        "meta_classification_type": "U",
        "meta_norad_cat_id": 35105,
        "meta_element_set_no": 999,
        "meta_rev_at_epoch": 94659,
        "meta_bstar": 0.00038829935,
        "meta_mean_motion_dot": 1.423e-05,
        "meta_mean_motion_ddot": 0,
        "tle_line1": "1 35105U 99025DKH 25358.22516249  .00001423  00000+0  38830-3 0  9997",
        "tle_line2": "2 35105  98.9452 339.8870 0112317  20.4148 340.1478 14.45410929946594"
      },
      "geometry": {
        "type": "Point",
        "coordinates": [
          160.36989456934498,
          -14.456853518968
        ]
      }
    },
    {
      "type": "Feature",
      "properties": {
        "norad_id": 35108,
        "name": "FENGYUN 1C DEB",
        "group": "fengyun-1c-debris",
        "lat": 5.772580700092954,
        "lon": -4.759862932533446,
        "alt_km": 778.1802967784643,
        "timestamp": "2025-12-26T21:25:53.297735+00:00",
        "meta_object_name": "FENGYUN 1C DEB",
        "meta_object_id": "1999-025DKL",
        "meta_epoch": "2025-12-26T06:02:36.915360",
        "meta_mean_motion": 14.06929713,
        "meta_eccentricity": 0.01344219,
        "meta_inclination": 98.7979,
        "meta_ra_of_asc_node": 355.5133,
        "meta_arg_of_pericenter": 23.6396,
        "meta_mean_anomaly": 337.0873,
        "meta_ephemeris_type": 0,
        "meta_classification_type": "U",
        "meta_norad_cat_id": 35108,
        "meta_element_set_no": 999,
        "meta_rev_at_epoch": 89428,
        "meta_bstar": 0.00030343666,
        "meta_mean_motion_dot": 5.06e-06,
        "meta_mean_motion_ddot": 0,
        "tle_line1": "1 35108U 99025DKL 25360.25181615  .00000506  00000+0  30344-3 0  9994",
        "tle_line2": "2 35108  98.7979 355.5133 0134421  23.6396 337.0873 14.06929713894281"
      },
      "geometry": {
        "type": "Point",
        "coordinates": [
          -4.759862932533446,
          5.772580700092954
        ]
      }
    },
    {
      "type": "Feature",
      "properties": {
        "norad_id": 35109,
        "name": "FENGYUN 1C DEB",
        "group": "fengyun-1c-debris",
        "lat": 25.29360580106252,
        "lon": 173.93475575477711,
        "alt_km": 925.1913976642973,
        "timestamp": "2025-12-26T21:25:53.297746+00:00",
        "meta_object_name": "FENGYUN 1C DEB",
        "meta_object_id": "1999-025DKM",
        "meta_epoch": "2025-12-24T16:19:09.812352",
        "meta_mean_motion": 14.20893527,
        "meta_eccentricity": 0.01527734,
        "meta_inclination": 98.6161,
        "meta_ra_of_asc_node": 347.6674,
        "meta_arg_of_pericenter": 359.9171,
        "meta_mean_anomaly": 0.1956,
        "meta_ephemeris_type": 0,
        "meta_classification_type": "U",
        "meta_norad_cat_id": 35109,
        "meta_element_set_no": 999,
        "meta_rev_at_epoch": 64329,
        "meta_bstar": 0.00031423303,
        "meta_mean_motion_dot": 7.21e-06,
        "meta_mean_motion_ddot": 0,
        "tle_line1": "1 35109U 99025DKM 25358.67997468  .00000721  00000+0  31423-3 0  9997",
        "tle_line2": "2 35109  98.6161 347.6674 0152773 359.9171   0.1956 14.20893527643294"
      },
      "geometry": {
        "type": "Point",
        "coordinates": [
          173.93475575477711,
          25.29360580106252
        ]
      }
    }
  ]
}